[{"OBJECT_NAME":"STARLINK-3196","OBJECT_ID":"2021-115AW","EPOCH":"2026-03-09T11:06:09.338976","MEAN_MOTION":15.08835295,"ECCENTRICITY":0.00013815,"INCLINATION":53.2182,"RA_OF_ASC_NODE":140.1345,"ARG_OF_PERICENTER":70.7782,"MEAN_ANOMALY":289.3359,"EPHEMERIS_TYPE":0,"CLASSIFICATION_TYPE":"U","NORAD_CAT_ID":49768,"ELEMENT_SET_NO":999,"REV_AT_EPOCH":23564,"BSTAR":2.4031709e-5,"MEAN_MOTION_DOT":9.5e-7,"MEAN_MOTION_DDOT":0},{"OBJECT_NAME":"CZ-4B DEB","OBJECT_ID":"2010-051H","EPOCH":"2026-03-08T15:03:50.230080","MEAN_MOTION":14.83710316,"ECCENTRICITY":0.01132064,"INCLINATION":97.7035,"RA_OF_ASC_NODE":129.0061,"ARG_OF_PERICENTER":211.6401,"MEAN_ANOMALY":147.7975,"EPHEMERIS_TYPE":0,"CLASSIFICATION_TYPE":"U","NORAD_CAT_ID":38326,"ELEMENT_SET_NO":999,"REV_AT_EPOCH":80705,"BSTAR":0.001509593,"MEAN_MOTION_DOT":0.00013943,"MEAN_MOTION_DDOT":0}]
